NAVSTAR 77 (USA 289)    
1 43873U 18109A   24245.12385398 -.00000001  00000+0  00000+0 0  9990
2 43873  55.3240 118.0261 0030151 192.5085 345.5001  2.00559376 41959
